start=new Date('2021-12-09T00:00:00.000Z').valueOf();
sats=[{"APOAPSIS":"548.616","OBJECT_NAME":"STARLINK-1012","GP_ID":"191362504","INCLINATION":"53.0553","FILE":"3235972","REF_FRAME":"TEME","ELEMENT_SET_NO":"999","LAUNCH_DATE":"2019-11-11","ARG_OF_PERICENTER":"54.6388","MEAN_ANOMALY":"305.4784","MEAN_MOTION":"15.06385768","DECAY_DATE":null,"PERIOD":"95.593","CLASSIFICATION_TYPE":"U","ECCENTRICITY":"0.00019620","MEAN_ELEMENT_THEORY":"SGP4","EPHEMERIS_TYPE":"0","TLE_LINE1":"1 44718U 19074F   21342.76233452 -.00000938  00000-0 -44096-4 0  9998","OBJECT_TYPE":"PAYLOAD","MEAN_MOTION_DOT":"-0.00000938","SEMIMAJOR_AXIS":"6925.392","OBJECT_ID":"2019-074F","SITE":"AFETR","REV_AT_EPOCH":"11483","RCS_SIZE":"LARGE","TIME_SYSTEM":"UTC","NORAD_CAT_ID":"44718","CENTER_NAME":"EARTH","BSTAR":"-0.00004409600000","MEAN_MOTION_DDOT":"0.0000000000000","RA_OF_ASC_NODE":"313.4933","COUNTRY_CODE":"US","TLE_LINE2":"2 44718  53.0553 313.4933 0001962  54.6388 305.4784 15.06385768114832","EPOCH":"2021-12-08T18:17:45.702528","PERIAPSIS":"545.898"},{"NORAD_CAT_ID":"44719","TIME_SYSTEM":"UTC","RCS_SIZE":"LARGE","REV_AT_EPOCH":"11598","SITE":"AFETR","OBJECT_ID":"2019-074G","SEMIMAJOR_AXIS":"6925.366","MEAN_MOTION_DOT":"0.00000323","OBJECT_TYPE":"PAYLOAD","EPOCH":"2021-12-08T21:39:27.045504","PERIAPSIS":"546.174","TLE_LINE2":"2 44719  53.0563 312.8560 0001526  60.4609 299.6532 15.06394399115982","RA_OF_ASC_NODE":"312.8560","COUNTRY_CODE":"US","BSTAR":"0.00004061100000","MEAN_MOTION_DDOT":"0.0000000000000","CENTER_NAME":"EARTH","MEAN_MOTION":"15.06394399","ARG_OF_PERICENTER":"60.4609","MEAN_ANOMALY":"299.6532","ELEMENT_SET_NO":"999","LAUNCH_DATE":"2019-11-11","FILE":"3235972","INCLINATION":"53.0563","REF_FRAME":"TEME","GP_ID":"191363255","OBJECT_NAME":"STARLINK-1013","APOAPSIS":"548.288","EPHEMERIS_TYPE":"0","TLE_LINE1":"1 44719U 19074G   21342.90239636  .00000323  00000-0  40611-4 0  9990","MEAN_ELEMENT_THEORY":"SGP4","ECCENTRICITY":"0.00015260","CLASSIFICATION_TYPE":"U","DECAY_DATE":null,"PERIOD":"95.592"},{"CENTER_NAME":"EARTH","RA_OF_ASC_NODE":"315.4620","COUNTRY_CODE":"US","BSTAR":"-0.00001231600000","MEAN_MOTION_DDOT":"0.0000000000000","EPOCH":"2021-12-08T07:46:07.943520","PERIAPSIS":"545.961","TLE_LINE2":"2 44720  53.0545 315.4620 0001825  57.8134 302.3032 15.06396295114775","MEAN_MOTION_DOT":"-0.00000465","OBJECT_TYPE":"PAYLOAD","OBJECT_ID":"2019-074H","SEMIMAJOR_AXIS":"6925.360","REV_AT_EPOCH":"11477","SITE":"AFETR","NORAD_CAT_ID":"44720","TIME_SYSTEM":"UTC","RCS_SIZE":"LARGE","CLASSIFICATION_TYPE":"U","DECAY_DATE":null,"PERIOD":"95.592","ECCENTRICITY":"0.00018250","EPHEMERIS_TYPE":"0","TLE_LINE1":"1 44720U 19074H   21342.32370305 -.00000465  00000-0 -12316-4 0  9997","MEAN_ELEMENT_THEORY":"SGP4","OBJECT_NAME":"STARLINK-1014","APOAPSIS":"548.489","GP_ID":"191333764","ELEMENT_SET_NO":"999","LAUNCH_DATE":"2019-11-11","FILE":"3235746","REF_FRAME":"TEME","INCLINATION":"53.0545","MEAN_MOTION":"15.06396295","MEAN_ANOMALY":"302.3032","ARG_OF_PERICENTER":"57.8134"},{"ARG_OF_PERICENTER":"56.8893","MEAN_ANOMALY":"303.2271","MEAN_MOTION":"15.06397889","FILE":"3235972","REF_FRAME":"TEME","INCLINATION":"53.0544","LAUNCH_DATE":"2019-11-11","ELEMENT_SET_NO":"999","GP_ID":"191362253","APOAPSIS":"548.489","OBJECT_NAME":"STARLINK-1015","MEAN_ELEMENT_THEORY":"SGP4","EPHEMERIS_TYPE":"0","TLE_LINE1":"1 44721U 19074J   21342.90976336  .00001152  00000-0  96217-4 0  9992","ECCENTRICITY":"0.00018320","DECAY_DATE":null,"PERIOD":"95.592","CLASSIFICATION_TYPE":"U","RCS_SIZE":"LARGE","NORAD_CAT_ID":"44721","TIME_SYSTEM":"UTC","SITE":"AFETR","REV_AT_EPOCH":"11485","SEMIMAJOR_AXIS":"6925.355","OBJECT_ID":"2019-074J","OBJECT_TYPE":"PAYLOAD","MEAN_MOTION_DOT":"0.00001152","TLE_LINE2":"2 44721  53.0544 312.8177 0001832  56.8893 303.2271 15.06397889114856","PERIAPSIS":"545.951","EPOCH":"2021-12-08T21:50:03.554304","MEAN_MOTION_DDOT":"0.0000000000000","BSTAR":"0.00009621700000","COUNTRY_CODE":"US","RA_OF_ASC_NODE":"312.8177","CENTER_NAME":"EARTH"},{"MEAN_MOTION_DOT":"-0.00000642","OBJECT_TYPE":"PAYLOAD","OBJECT_ID":"2019-074K","SEMIMAJOR_AXIS":"6925.365","REV_AT_EPOCH":"11486","SITE":"AFETR","TIME_SYSTEM":"UTC","NORAD_CAT_ID":"44722","RCS_SIZE":"LARGE","CENTER_NAME":"EARTH","COUNTRY_CODE":"US","RA_OF_ASC_NODE":"312.8122","MEAN_MOTION_DDOT":"0.0000000000000","BSTAR":"-0.00002419900000","PERIAPSIS":"545.656","EPOCH":"2021-12-08T21:55:22.380672","TLE_LINE2":"2 44722  53.0551 312.8122 0002274  45.4118 314.7056 15.06394518114865","OBJECT_NAME":"STARLINK-1016","APOAPSIS":"548.805","GP_ID":"191363005","LAUNCH_DATE":"2019-11-11","ELEMENT_SET_NO":"999","FILE":"3235972","INCLINATION":"53.0551","REF_FRAME":"TEME","MEAN_MOTION":"15.06394518","ARG_OF_PERICENTER":"45.4118","MEAN_ANOMALY":"314.7056","CLASSIFICATION_TYPE":"U","PERIOD":"95.592","DECAY_DATE":null,"ECCENTRICITY":"0.00022740","TLE_LINE1":"1 44722U 19074K   21342.91345348 -.00000642  00000-0 -24199-4 0  9992","EPHEMERIS_TYPE":"0","MEAN_ELEMENT_THEORY":"SGP4"},{"OBJECT_ID":"2019-074L","SEMIMAJOR_AXIS":"6925.362","MEAN_MOTION_DOT":"-0.00000698","OBJECT_TYPE":"PAYLOAD","TIME_SYSTEM":"UTC","NORAD_CAT_ID":"44723","RCS_SIZE":"LARGE","REV_AT_EPOCH":"11486","SITE":"AFETR","CENTER_NAME":"EARTH","EPOCH":"2021-12-08T22:16:36.214752","PERIAPSIS":"545.879","TLE_LINE2":"2 44723  53.0566 312.7548 0001946  62.3555 297.7631 15.06395764114864","RA_OF_ASC_NODE":"312.7548","COUNTRY_CODE":"US","BSTAR":"-0.00002796000000","MEAN_MOTION_DDOT":"0.0000000000000","GP_ID":"191362755","OBJECT_NAME":"STARLINK-1017","APOAPSIS":"548.574","MEAN_MOTION":"15.06395764","ARG_OF_PERICENTER":"62.3555","MEAN_ANOMALY":"297.7631","ELEMENT_SET_NO":"999","LAUNCH_DATE":"2019-11-11","FILE":"3235972","REF_FRAME":"TEME","INCLINATION":"53.0566","ECCENTRICITY":"0.00019460","CLASSIFICATION_TYPE":"U","DECAY_DATE":null,"PERIOD":"95.592","EPHEMERIS_TYPE":"0","TLE_LINE1":"1 44723U 19074L   21342.92819693 -.00000698  00000-0 -27960-4 0  9993","MEAN_ELEMENT_THEORY":"SGP4"},{"RCS_SIZE":"LARGE","NORAD_CAT_ID":"44724","TIME_SYSTEM":"UTC","SITE":"AFETR","REV_AT_EPOCH":"11486","SEMIMAJOR_AXIS":"6925.364","OBJECT_ID":"2019-074M","OBJECT_TYPE":"PAYLOAD","MEAN_MOTION_DOT":"-0.00000751","TLE_LINE2":"2 44724  53.0553 312.6177 0001773  63.2545 296.8625 15.06394838114869","PERIAPSIS":"546.002","EPOCH":"2021-12-08T22:59:04.217280","MEAN_MOTION_DDOT":"0.0000000000000","BSTAR":"-0.00003152400000","COUNTRY_CODE":"US","RA_OF_ASC_NODE":"312.6177","CENTER_NAME":"EARTH","MEAN_ANOMALY":"296.8625","ARG_OF_PERICENTER":"63.2545","MEAN_MOTION":"15.06394838","INCLINATION":"53.0553","FILE":"3235972","REF_FRAME":"TEME","LAUNCH_DATE":"2019-11-11","ELEMENT_SET_NO":"999","GP_ID":"191361503","APOAPSIS":"548.457","OBJECT_NAME":"STARLINK-1019","MEAN_ELEMENT_THEORY":"SGP4","EPHEMERIS_TYPE":"0","TLE_LINE1":"1 44724U 19074M   21342.95768770 -.00000751  00000-0 -31524-4 0  9997","ECCENTRICITY":"0.00017730","PERIOD":"95.592","DECAY_DATE":null,"CLASSIFICATION_TYPE":"U"},{"SEMIMAJOR_AXIS":"6925.362","OBJECT_ID":"2019-074N","MEAN_MOTION_DOT":"0.00001261","OBJECT_TYPE":"PAYLOAD","RCS_SIZE":"LARGE","TIME_SYSTEM":"UTC","NORAD_CAT_ID":"44725","SITE":"AFETR","REV_AT_EPOCH":"11454","CENTER_NAME":"EARTH","TLE_LINE2":"2 44725  53.0550 333.7755 0001664  66.4469 293.6695 15.06395537114546","PERIAPSIS":"546.075","EPOCH":"2021-12-08T16:44:51.818208","MEAN_MOTION_DDOT":"0.0000000000000","BSTAR":"0.00010358000000","COUNTRY_CODE":"US","RA_OF_ASC_NODE":"333.7755","GP_ID":"191361753","APOAPSIS":"548.380","OBJECT_NAME":"STARLINK-1020","ARG_OF_PERICENTER":"66.4469","MEAN_ANOMALY":"293.6695","MEAN_MOTION":"15.06395537","INCLINATION":"53.0550","FILE":"3235972","REF_FRAME":"TEME","LAUNCH_DATE":"2019-11-11","ELEMENT_SET_NO":"999","ECCENTRICITY":"0.00016640","DECAY_DATE":null,"PERIOD":"95.592","CLASSIFICATION_TYPE":"U","MEAN_ELEMENT_THEORY":"SGP4","TLE_LINE1":"1 44725U 19074N   21342.69782197  .00001261  00000-0  10358-3 0  9994","EPHEMERIS_TYPE":"0"},{"TLE_LINE2":"2 44726  53.0555 312.9402 0001840  66.4931 293.6251 15.06397673114855","PERIAPSIS":"545.946","EPOCH":"2021-12-08T21:18:12.411360","MEAN_MOTION_DDOT":"0.0000000000000","BSTAR":"0.00011335000000","COUNTRY_CODE":"US","RA_OF_ASC_NODE":"312.9402","CENTER_NAME":"EARTH","RCS_SIZE":"LARGE","NORAD_CAT_ID":"44726","TIME_SYSTEM":"UTC","SITE":"AFETR","REV_AT_EPOCH":"11485","SEMIMAJOR_AXIS":"6925.356","OBJECT_ID":"2019-074P","OBJECT_TYPE":"PAYLOAD","MEAN_MOTION_DOT":"0.00001407","MEAN_ELEMENT_THEORY":"SGP4","TLE_LINE1":"1 44726U 19074P   21342.88764365  .00001407  00000-0  11335-3 0  9991","EPHEMERIS_TYPE":"0","ECCENTRICITY":"0.00018400","PERIOD":"95.592","DECAY_DATE":null,"CLASSIFICATION_TYPE":"U","ARG_OF_PERICENTER":"66.4931","MEAN_ANOMALY":"293.6251","MEAN_MOTION":"15.06397673","REF_FRAME":"TEME","FILE":"3235972","INCLINATION":"53.0555","LAUNCH_DATE":"2019-11-11","ELEMENT_SET_NO":"999","GP_ID":"191362505","APOAPSIS":"548.495","OBJECT_NAME":"STARLINK-1021"},{"MEAN_ELEMENT_THEORY":"SGP4","EPHEMERIS_TYPE":"0","TLE_LINE1":"1 44727U 19074Q   21342.72546433  .00001508  00000-0  12010-3 0  9992","ECCENTRICITY":"0.00017390","DECAY_DATE":null,"PERIOD":"95.592","CLASSIFICATION_TYPE":"U","ARG_OF_PERICENTER":"62.2042","MEAN_ANOMALY":"297.9123","MEAN_MOTION":"15.06407604","FILE":"3235972","REF_FRAME":"TEME","INCLINATION":"53.0637","LAUNCH_DATE":"2019-11-11","ELEMENT_SET_NO":"999","GP_ID":"191363256","APOAPSIS":"548.395","OBJECT_NAME":"STARLINK-1022","TLE_LINE2":"2 44727  53.0637 353.6278 0001739  62.2042 297.9123 15.06407604114282","PERIAPSIS":"545.986","EPOCH":"2021-12-08T17:24:40.118112","MEAN_MOTION_DDOT":"0.0000000000000","BSTAR":"0.00012010000000","COUNTRY_CODE":"US","RA_OF_ASC_NODE":"353.6278","CENTER_NAME":"EARTH","RCS_SIZE":"LARGE","NORAD_CAT_ID":"44727","TIME_SYSTEM":"UTC","SITE":"AFETR","REV_AT_EPOCH":"11428","SEMIMAJOR_AXIS":"6925.325","OBJECT_ID":"2019-074Q","MEAN_MOTION_DOT":"0.00001508","OBJECT_TYPE":"PAYLOAD"}];
